#dP2018  3 15  0  0  0.00000000      96 __u+U ITR00 FIT  IAC
## 1992 345600.00000000   900.00000000 58192 0.0000000000000
+   88   C01C02C03C04C05C06C07C08C09C10C11C12C13C14E01E02E03
+        E04E05E07E08E09E11E12E14E18E19E24E26E30G01G02G03G04
+        G05G06G07G08G09G10G11G12G13G14G15G16G17G18G19G20G21
+        G22G23G24G25G26G27G28G29G30G31G32J01J03R01R02R03R04
+        R05R06R07R08R09R10R11R13R14R15R16R17R18R19R20R21R22
+        R23R24R26  0  0  0  0  0  0  0  0  0  0  0  0  0  0
++        12 11 12 12 11  9  9  8  8  9  8  8  8  7  6  7  7
++         6  7  6  6  6  7  6  6  7  6  6  6  7  3  3  3  0
++         3  3  3  3  4  3  3  3  4  3  3  3  3  4  3  3  4
++         3  3  3  4  4  3  3  4  3  3  3  0 11  5  5  5  5
++         6  5  5  5  5  5  5  5  5  6  5  5  5  5  5  5  5
++         5  6  9  0  0  0  0  0  0  0  0  0  0  0  0  0  0
%c M  cc GPS ccc cccc cccc cccc cccc ccccc ccccc ccccc ccccc
%c cc cc ccc ccc cccc cccc cccc cccc ccccc ccccc ccccc ccccc
%f  0.0000000  0.000000000  0.00000000000  0.000000000000000
%f  0.0000000  0.000000000  0.00000000000  0.000000000000000
%i    0    0    0    0      0      0      0      0         0
%i    0    0    0    0      0      0      0      0         0
/* INFORMATION & ANALYSIS CENTER (IAC) OF MCC   (RAPID DATA)
/* S/V CLOCKS ARE ALIGNED TO GPS & GLONASS TIME RESPECTIVELY
/* USING THE BROADCAST EPHEMERIS                            
/* PCV:IGS14_1984 OL/AL:FES2004  NONE     YN ORB:CoN CLK:CoN
*  2018 03 15 17  0  0.00000000
PC01 -32326.147166  27061.179265   -572.865925    487.055661
PC02   4409.207380  41924.171370   1151.525427   -293.856367
PC03 -14829.820940  39493.921797    744.658068   -378.441157
PC04 -39596.313979  14475.642798    -25.078175     31.774876
PC05  21933.836708  36004.779687   1417.152552   -175.260726
PC06 -20393.781056  36875.703542  -3777.568010     38.396502
PC07  -7291.895472  30216.819432 -28197.404752    932.148475
PC08 -19671.694329  19224.927727  31952.462627    230.573323
PC09 -10666.724459  36948.295354 -17503.803777   -312.964704
PC10   4093.859621  36690.594152 -19947.985885    -85.147265
PC11  22673.264215   2050.265906  16246.305670   -428.863068
PC12   5560.757335  14477.696470  23257.320786    393.997390
PC13  -1794.748304  23620.990557  34890.475934   -247.462362
PC14  14192.505098  10393.437772 -21620.379406    293.642438
PE01  20732.892489  17828.156503  11334.744505   -298.733179
PE02 -20737.143943 -17795.921190 -11366.420969      7.584095
PE03 -14832.179517  -8644.212680  24115.680421     -9.917266
PE04  20249.606567 -12342.594295 -17706.431292      5.203683
PE05   -709.053098 -24622.592186  16411.813500    303.601243
PE07 -13810.730278  26164.328098    890.824710     67.564337
PE08 -20035.161173  12557.295256  17806.979415   6623.586919
PE09  13570.367471 -26295.190462   -931.645039   6848.054346
PE11  14520.166323 -15140.005351 -20869.439670   1843.093173
PE12  28552.820746  -5632.207395  -5325.683082   3718.294769
PE14 -27464.173824   8641.062334 -10437.058164   6615.332750
PE18  20324.465457 -16851.494525  -3227.925670   6356.245566
PE19  13666.216150  10475.343495 -24074.511382     20.350812
PE24   4394.883620 -19377.919072  21918.853219   6811.713070
PE26   7427.671686  15793.655794  23916.389789   6162.461496
PE30 -17772.263090   1169.759855 -23651.192287   6000.382433
PG01 -21612.250989 -13991.807290  -7262.202343    -34.336093
PG02    961.398038  16479.252914  21408.160187    173.413370
PG03 -12550.869344 -18937.655238  13783.709847 999999.999999
PG04      0.000000      0.000000      0.000000 999999.999999
PG05   1772.984035  26117.946355   3668.450495    -12.042941
PG06 -13061.320384  10206.895985  20791.312983    412.548854
PG07 -25198.287085  -4700.317460  -7584.755621    222.612615
PG08  -6472.900622 -13893.071939 -21625.587311    -94.459568
PG09 -21703.708793   4257.345237  14679.708788    506.780987
PG10  11884.017617 -13184.550085 -19672.219917    170.408927
PG11 -19696.810690 -10726.873757 -14678.390582   -737.356065
PG12  10233.397047  20958.575023  12713.394419    345.189133
PG13  -3961.319509  18001.359047 -19242.719531    -95.515235
PG14  16482.092952 -18781.687356   9026.783058    -95.155958
PG15   8566.254968  13736.991514 -21232.770864   -356.396517
PG16    497.014118 -26080.828783   3415.465232     30.194101
PG17 -21188.046334  15896.228267    810.685591   -115.494074
PG18 -15200.722838 -16518.037907 -14789.892021     -7.609675
PG19 -18566.992366  17684.789190   7026.693046   -450.659011
PG20  15116.356649  17112.076536 -13784.794717    503.259618
PG21  24569.267173   1285.759498  -9216.378967   -419.220198
PG22 -10650.338946 -23190.229275   7588.785024   -324.052825
PG23 -15043.351982  -7324.413328  20976.285615   -218.581018
PG24  19761.236425  14798.627152 -10279.767879    -47.306570
PG25  15044.516418   8053.900733  20245.509109   -553.935506
PG26   5964.962293 -22012.598488  13494.639653   -216.900079
PG27   6989.878115 -19713.019775 -16280.847504    369.523285
PG28 -13022.790406   9364.367224 -20558.144342    697.315730
PG29  20121.666728    -57.848264  17313.616768    481.904547
PG30 -21694.876655   2232.978528 -15261.678950     94.640601
PG31  12384.525275 -10618.034912  21076.132253    135.243702
PG32  20810.577225 -16427.458557   -448.931235   -528.226388
PJ01      0.000000      0.000000      0.000000 999999.999999
PJ03 -27755.130876  31666.004668   2002.108206    -16.328817
PR01  12478.946188  -5796.497623 -21480.563097     23.395179
PR02  10376.678326 -22061.447287  -7383.445100    299.954473
PR03   1980.268831 -23291.344663  10200.977874    126.771222
PR04  -7743.373503 -10492.518103  21935.104320    253.464093
PR05 -12647.880653   7605.924282  20795.132599   -265.123335
PR06  -9801.526866  22633.798740   6551.703016    128.792509
PR07  -1846.971955  23197.101877 -10454.544535    -32.590599
PR08   7394.247414  11156.079664 -21664.814447     22.746065
PR09  -4656.422619  11010.255320 -22516.749144     41.904324
PR10   9876.759496  19631.148829 -12911.583909     20.451559
PR11  18537.214529  16820.116634   4821.343329    -24.069530
PR13   3774.109392 -11334.585707  22514.575653     -8.436897
PR14  -9708.085361 -19672.354078  13028.086108     25.479607
PR15 -17536.189962 -18413.650254  -1102.167694     -7.485715
PR16 -16540.044477  -4309.258895 -18912.992857     87.881599
PR17    545.404087 -11032.774538 -22979.152809    116.855120
PR18 -16758.503396  -4927.332984 -18598.787007    188.303160
PR19 -25009.208089   3503.735393  -3614.592227    -47.351505
PR20 -18159.889333  10475.562998  14584.208779   -330.731086
PR21   -201.204570  10900.446010  23065.833615     25.187644
PR22  18061.773318   4104.900452  17478.274023    -26.693372
PR23  24885.135278  -5581.832280     32.685265    141.865212
PR24  17319.966698 -10967.495627 -15182.573229   -163.700566
PR26 -18166.695348  10780.026377  14299.739213      5.481503
EOF
